SPACEBEE-7              
1 43816U 18099BL  23143.90651687  .00007176  00000+0  54796-3 0  9998
2 43816  97.6006 209.2300 0013588 168.9006 191.2521 15.02201975243667
SPACEBEE-5              
1 43817U 18099BM  23144.01399129  .00029370  00000+0  15314-2 0  9994
2 43817  97.5918 216.0470 0005698 165.0970 195.0431 15.15902537244034
SPACEBEE-6              
1 43818U 18099BN  23143.91441041  .00011073  00000+0  77259-3 0  9992
2 43818  97.5904 211.1773 0012469 187.7708 172.3328 15.05482415243912
SPACEBEE-21             
1 46300U 20061AE  23144.50780318  .00443143  00000+0  27997-2 0  9992
2 46300  97.3937 222.7649 0008473 240.2706 119.7716 15.75333150150751
SPACEBEE-20             
1 46301U 20061AF  23144.21231457  .00480598  00000+0  31477-2 0  9999
2 46301  97.4015 222.6502 0009040 244.2349 115.7983 15.74387563150708
SPACEBEE-19             
1 46303U 20061AH  23144.21216169  .01276274  77713-3  36071-2 0  9993
2 46303  97.3894 223.5132 0013407 258.8216 101.1551 15.93442915150770
SPACEBEE-62             
1 47429U 21006S   23144.16650466  .00029198  00000+0  98111-3 0  9994
2 47429  97.3875 204.6755 0011349 153.4635 206.7189 15.30729010129172
SPACEBEE-61             
1 47431U 21006U   23144.13319750  .00726742  00000+0  33931-2 0  9999
2 47431  97.3798 209.8948 0010857 237.9531 122.0683 15.81384595129468
SPACEBEE-49             
1 47432U 21006V   23143.69518474  .00512039  00000+0  30866-2 0  9990
2 47432  97.3830 209.1783 0009029 196.0171 164.0810 15.76225561130337
SPACEBEE-60             
1 47433U 21006W   23144.13071260  .00886395  31287-3  34449-2 0  9993
2 47433  97.3784 210.1460 0011082 233.2980 126.7274 15.87069795129473
SPACEBEE-63             
1 47442U 21006AF  23144.14646048  .00022827  00000+0  89827-3 0  9994
2 47442  97.3913 201.3768 0005658 166.4645 193.6746 15.25630467128925
SPACEBEE-50             
1 47443U 21006AG  23144.42004201  .00469207  00000+0  31044-2 0  9999
2 47443  97.3832 209.8164 0008342 218.6662 141.4006 15.74188233129486
SPACEBEE-55             
1 47459U 21006AY  23143.88584498  .00022333  00000+0  81096-3 0  9994
2 47459  97.3833 202.1920 0009945 165.4407 194.7121 15.28267768129014
SPACEBEE-57             
1 47465U 21006BE  23143.90018555  .00020445  00000+0  80731-3 0  9997
2 47465  97.3856 200.4554 0005177 170.7305 189.4030 15.25539347128885
SPACEBEE-75             
1 48637U 21006FD  23144.07293802  .00932413  36228-3  31769-2 0  9996
2 48637  97.1371 188.6990 0009057 203.5240 156.5620 15.89778840129640
SPACEBEENZ-10           
1 48882U 21059D   23144.37580988  .00075921  00000+0  14928-2 0  9998
2 48882  97.5822 283.7635 0003814 306.8801  53.2099 15.47003200105962
SPACEBEE-100            
1 48883U 21059E   23143.89818356  .00024768  00000+0  84240-3 0  9996
2 48883  97.5919 280.1576 0005560   0.2926 359.8316 15.30420472105679
SPACEBEE-101            
1 48884U 21059F   23144.36359122  .00024712  00000+0  85740-3 0  9996
2 48884  97.5925 280.4824 0005417   2.5506 357.5760 15.29774257105732
SPACEBEE-102            
1 48886U 21059H   23143.95615147  .00026202  00000+0  90727-3 0  9991
2 48886  97.5924 280.0967 0005305   3.3421 356.7854 15.29828124105679
SPACEBEENZ-9            
1 48887U 21059J   23143.85663202  .00081549  00000+0  16028-2 0  9992
2 48887  97.5821 283.2079 0003815 309.2110  50.8800 15.46991629105888
SPACEBEE-103            
1 48888U 21059K   23144.36204036  .00025945  00000+0  87624-3 0  9995
2 48888  97.5932 280.8127 0005592 357.6670   2.4544 15.30638697105751
SPACEBEENZ-7            
1 48889U 21059L   23143.89932250  .00079718  00000+0  15343-2 0  9994
2 48889  97.5834 283.6428 0003899 309.5182  50.5722 15.47607407105902
SPACEBEE-104            
1 48890U 21059M   23144.10271910  .00028071  00000+0  93982-3 0  9992
2 48890  97.5926 280.4908 0005460   1.6497 358.4761 15.30905559105712
SPACEBEENZ-8            
1 48891U 21059N   23143.96193115  .00080163  00000+0  15930-2 0  9992
2 48891  97.5844 283.5708 0003951 311.7759  48.3152 15.46676218105907
SPACEBEE-106            
1 48893U 21059Q   23144.34676134  .00024974  00000+0  86119-3 0  9990
2 48893  97.5945 280.8393 0005968   2.2773 357.8493 15.29969140105747
SPACEBEE-107            
1 48894U 21059R   23143.89295828  .00026971  00000+0  88638-3 0  9994
2 48894  97.5949 280.8462 0005585 359.1651   0.9580 15.31512728105701
SPACEBEE-108            
1 48895U 21059S   23143.62001059  .00027638  00000+0  95124-3 0  9996
2 48895  97.5943 280.0795 0006016   4.1797 355.9492 15.30009632105636
SPACEBEE-105            
1 48896U 21059T   23144.33544513  .00026817  00000+0  90138-3 0  9991
2 48896  97.5928 280.6502 0005621 348.8385  11.2730 15.30786051105740
SPACEBEE-109            
1 48897U 21059U   23144.33920901  .00027746  00000+0  92143-3 0  9991
2 48897  97.5945 281.1354 0005852 357.3108   2.8100 15.31168484105769
SPACEBEE-110            
1 48899U 21059W   23144.35961336  .00026818  00000+0  88365-3 0  9992
2 48899  97.5952 281.4595 0006071 355.7223   4.3965 15.31428011105786
SPACEBEE-111            
1 48904U 21059AB  23144.36930156  .00029284  00000+0  93034-3 0  9995
2 48904  97.5957 281.9695 0006424 352.0530   8.0609 15.32579022105817
SPACEBEE-121            
1 52009U 22026B   23144.44406397  .00030239  00000+0  10287-2 0  9995
2 52009  97.5050 147.8224 0021824 157.0426 203.1795 15.30152824 66004
SPACEBEE-114            
1 52010U 22026C   23143.98236214  .00028166  00000+0  94158-3 0  9990
2 52010  97.5069 147.6464 0020870 159.2586 200.9506 15.30754023 65958
SPACEBEE-126            
1 52011U 22026D   23143.98814795  .00028610  00000+0  95587-3 0  9998
2 52011  97.5059 147.5597 0021376 156.6935 203.5280 15.30758977 65944
SPACEBEE-118            
1 52012U 22026E   23143.94753290  .00029420  00000+0  96947-3 0  9998
2 52012  97.5060 147.8023 0020327 160.4000 199.8026 15.31219205 65969
SPACEBEE-120            
1 52013U 22026F   23143.94394462  .00029043  00000+0  96601-3 0  9999
2 52013  97.5057 147.6084 0022195 155.2103 205.0210 15.30881467 65949
SPACEBEE-122            
1 52014U 22026G   23143.78498310  .00031556  00000+0  10393-2 0  9994
2 52014  97.5053 147.5168 0021037 157.4030 202.8142 15.31206818 65924
SPACEBEE-119            
1 52015U 22026H   23143.97584759  .00027794  00000+0  94291-3 0  9998
2 52015  97.5068 147.4737 0021829 158.7354 201.4799 15.30259984 65939
SPACEBEE-115            
1 52016U 22026J   23143.98868498  .00026917  00000+0  91364-3 0  9999
2 52016  97.5077 147.6332 0021514 157.5924 202.6261 15.30256650 65949
SPACEBEENZ-14           
1 52018U 22026L   23144.27049541  .00050611  00000+0  13985-2 0  9994
2 52018  97.5026 149.0063 0019890 151.6165 208.6167 15.36680589 66061
SPACEBEENZ-11           
1 52019U 22026M   23143.83459766  .00047677  00000+0  12573-2 0  9990
2 52019  97.5018 148.8100 0019396 152.1509 208.0778 15.38151037 65975
SPACEBEE-127            
1 52020U 22026N   23143.97279394  .00027125  00000+0  93574-3 0  9991
2 52020  97.5061 147.4351 0021739 158.2657 201.9510 15.29724090 65884
SPACEBEE-125            
1 52021U 22026P   23143.84778369  .00028522  00000+0  93823-3 0  9993
2 52021  97.5058 147.7138 0022555 157.6771 202.5456 15.31235289 65813
SPACEBEE-117            
1 52022U 22026Q   23143.81508732  .00027233  00000+0  93129-3 0  9993
2 52022  97.5074 147.4039 0021730 158.5249 201.6908 15.30007701 65786
SPACEBEE-116            
1 52023U 22026R   23144.23545929  .00036940  00000+0  12435-2 0  9995
2 52023  97.5075 147.9218 0021345 155.9795 204.2446 15.30460739 65859
SPACEBEE-113            
1 52024U 22026S   23143.99157630  .00028828  00000+0  95659-3 0  9992
2 52024  97.5063 147.7566 0022882 154.7940 205.4422 15.30944962 65826
SPACEBEE-112            
1 52025U 22026T   23144.00292409  .00035928  00000+0  11067-2 0  9999
2 52025  97.5054 148.1857 0020755 155.1866 205.0379 15.33326578 65854
SPACEBEENZ-13           
1 52026U 22026U   23143.98174750  .00046009  00000+0  12601-2 0  9991
2 52026  97.5020 148.7686 0019949 153.0584 207.1700 15.36977957 65803
SPACEBEE-123            
1 52027U 22026V   23143.96158923  .00027273  00000+0  92758-3 0  9998
2 52027  97.5054 147.4225 0021589 158.1364 202.0802 15.30187865 65713
SPACEBEENZ-12           
1 52028U 22026W   23143.99775313  .00040338  00000+0  11780-2 0  9992
2 52028  97.5090 148.5817 0020347 153.9285 206.2988 15.34995191 65870
SPACEBEE-124            
1 52029U 22026X   23143.97431419  .00027783  00000+0  94514-3 0  9993
2 52029  97.5055 147.3963 0021662 158.2486 201.9679 15.30174055 64437
SPACEBEE-136            
1 52164U 22033H   23144.22992069  .00075109  00000+0  14160-2 0  9996
2 52164  97.3449 228.2820 0006746 230.0486 130.0172 15.48208696 63828
SPACEBEE-138            
1 52166U 22033K   23144.20062610  .00077099  00000+0  14709-2 0  9995
2 52166  97.3470 228.2919 0007600 224.1123 135.9521 15.47851075 63810
SPACEBEE-130            
1 52176U 22033V   23143.75866364  .00063901  00000+0  11968-2 0  9994
2 52176  97.3454 227.8946 0005604 223.5393 136.5416 15.48452782 63758
SPACEBEE-139            
1 52177U 22033W   23144.22151797  .00068572  00000+0  13652-2 0  9996
2 52177  97.3478 227.9849 0007253 228.7479 131.3147 15.46652068 63775
SPACEBEE-129            
1 52179U 22033Y   23144.21937541  .00064591  00000+0  13337-2 0  9993
2 52179  97.3460 227.7533 0006228 230.4187 129.6513 15.45609945 63764
SPACEBEE-134            
1 52180U 22033Z   23143.92204506  .00054776  00000+0  11591-2 0  9994
2 52180  97.3449 227.2044 0006344 231.3031 128.7650 15.44931747 63727
SPACEBEE-131            
1 52181U 22033AA  23144.21025925  .00062448  00000+0  13037-2 0  9996
2 52181  97.3464 227.7823 0006283 231.8872 128.1811 15.45295827 63765
SPACEBEE-128            
1 52182U 22033AB  23143.74634040  .00055551  00000+0  11335-2 0  9994
2 52182  97.3489 227.4427 0006448 232.4529 127.6135 15.45996924 63690
SPACEBEE-133            
1 52183U 22033AC  23144.19575331  .00066275  00000+0  13723-2 0  9990
2 52183  97.3469 227.8091 0006374 230.9086 129.1597 15.45519516 63764
